NORAD_CAT_ID,OBJECT_NAME,OBJECT_TYPE,EPOCH,MEAN_MOTION,ECCENTRICITY,INCLINATION,RA_OF_ASC_NODE,ARG_OF_PERICENTER,MEAN_ANOMALY,BSTAR,MEAN_MOTION_DOT,MEAN_MOTION_DDOT,TLE_LINE0,TLE_LINE1,TLE_LINE2,SEMIMAJOR_AXIS,PERIOD,APOGEE,PERIGEE,DECAYED
49157.0,STARLINK-3051,PAYLOAD,2022-01-23 22:00:00,15.65104301,0.0003592,69.9998,116.4195,279.6204,150.7586,-0.0072283999999999,-0.00660783,0.0,0 STARLINK-3051,1 49157U 21082AD  22023.91667824 -.00660783  00000-0 -72284-2 0  9998,2 49157  69.9998 116.4195 0003592 279.6204 150.7586 15.65104301  3689,6751.076,92.007,375.366,370.516,0.0
49157.0,STARLINK-3051,PAYLOAD,2022-01-24 06:00:02,15.64636107,0.0003503,70.0003,115.4892,282.4274,225.2894,-0.0073387,-0.00658608,0.0,0 STARLINK-3051,1 49157U 21082AD  22024.25002315 -.00658608  00000-0 -73387-2 0  9992,2 49157  70.0003 115.4892 0003503 282.4274 225.2894 15.64636107 21934,6752.4230000000025,92.034,376.653,371.922,0.0
49157.0,STARLINK-3051,PAYLOAD,2022-01-24 14:00:01,15.6416756,0.0003491,70.0,114.5595,284.6494,299.715,-0.0074686,-0.00657957,0.0,0 STARLINK-3051,1 49157U 21082AD  22024.58334491 -.00657957  00000-0 -74686-2 0  9990,2 49157  70.0000 114.5595 0003491 284.6494 299.7150 15.64167560  3679,6753.771,92.062,377.994,373.278,0.0
49157.0,STARLINK-3051,PAYLOAD,2022-01-24 22:00:00,15.63702927,0.0003449,69.9998,113.6304,272.3051,28.2098,-0.0076723,-0.00663162,0.0,0 STARLINK-3051,1 49157U 21082AD  22024.91667824 -.00663162  00000-0 -76723-2 0  9995,2 49157  69.9998 113.6304 0003449 272.3051  28.2098 15.63702927  3684,6755.109,92.089,379.304,374.644,0.0
49157.0,STARLINK-3051,PAYLOAD,2022-01-25 06:00:00,15.63233719,0.0003651,70.0001,112.7022,281.596,94.5099,-0.0077638,-0.00659151,0.0,0 STARLINK-3051,1 49157U 21082AD  22025.25001157 -.00659151  00000-0 -77638-2 0  9993,2 49157  70.0001 112.7022 0003651 281.5960  94.5099 15.63233719 22096,6756.46,92.117,380.792,375.859,0.0
49157.0,STARLINK-3051,PAYLOAD,2022-01-25 14:00:01,15.62767429,0.0003668,70.0001,111.7744,286.0145,165.12099999999995,-0.0079329,-0.00661136,0.0,0 STARLINK-3051,1 49157U 21082AD  22025.58334491 -.00661136  00000-0 -79329-2 0  9994,2 49157  70.0001 111.7744 0003668 286.0145 165.1210 15.62767429  3671,6757.804,92.144,382.148,377.19,0.0
49157.0,STARLINK-3051,PAYLOAD,2022-01-25 22:00:00,15.62300172,0.0003398,69.9998,110.8471,276.0739,249.5313,-0.0080927,-0.00662095,0.0,0 STARLINK-3051,1 49157U 21082AD  22025.91667824 -.00662095  00000-0 -80927-2 0  9991,2 49157  69.9998 110.8471 0003398 276.0739 249.5313 15.62300172  3701,6759.151999999999,92.172,383.31300000000016,378.72,0.0
49157.0,STARLINK-3051,PAYLOAD,2022-01-26 06:00:00,15.61831974,0.0003442,70.0002,109.9207,280.0957,319.4181,-0.0082046,-0.00659351,0.0,0 STARLINK-3051,1 49157U 21082AD  22026.25001157 -.00659351  00000-0 -82046-2 0  9995,2 49157  70.0002 109.9207 0003442 280.0957 319.4181 15.61831974 22241,6760.502,92.199,384.694,380.04,0.0
49157.0,STARLINK-3051,PAYLOAD,2022-01-26 14:00:01,15.61364168,0.0003575,70.0,108.9949,283.6953,29.1672,-0.0083675,-0.00660302,0.0,0 STARLINK-3051,1 49157U 21082AD  22026.58334491 -.00660302  00000-0 -83675-2 0  9998,2 49157  70.0000 108.9949 0003575 283.6953  29.1672 15.61364168  3697,6761.853,92.227,386.135,381.3,0.0
49157.0,STARLINK-3051,PAYLOAD,2022-01-26 22:00:00,15.60896789,0.0003553,69.9998,108.0697,274.3436,111.3065,-0.0085268,-0.0066078,0.0,0 STARLINK-3051,1 49157U 21082AD  22026.91667824 -.00660780  00000-0 -85268-2 0  9994,2 49157  69.9998 108.0697 0003553 274.3436 111.3065 15.60896789  3687,6763.2019999999975,92.255,387.47,382.664,0.0
49157.0,STARLINK-3051,PAYLOAD,2022-01-27 04:02:34,15.61114297,0.0002338,70.0004,107.371,289.9047,70.1892,-0.0027389,-0.00225684,0.0,0 STARLINK-3051,1 49157U 21082AD  22027.16846011 -.00225684  00000-0 -27389-2 0  9999,2 49157  70.0004 107.3710 0002338 289.9047  70.1892 15.61114297 22393,6762.574000000001,92.242,386.02,382.858,0.0
49157.0,STARLINK-3051,PAYLOAD,2022-01-27 13:16:31,15.60518683,0.0003359,69.9989,106.3022,284.8587,75.2232,-0.0042072,-0.00334377,0.0,0 STARLINK-3051,1 49157U 21082AD  22027.55314748 -.00334377  00000-0 -42072-2 0  9995,2 49157  69.9989 106.3022 0003359 284.8587  75.2232 15.60518683 22451,6764.295,92.277,388.432,383.888,0.0
49157.0,STARLINK-3051,PAYLOAD,2022-01-27 22:00:00,15.59495521,0.0003368,69.9999,105.2981,277.5649,323.0837,-0.0090257,-0.00662633,0.0,0 STARLINK-3051,1 49157U 21082AD  22027.91667824 -.00662633  00000-0 -90257-2 0  9998,2 49157  69.9999 105.2981 0003368 277.5649 323.0837 15.59495521 22506,6767.253000000002,92.338,391.397,386.839,0.0
49157.0,STARLINK-3051,PAYLOAD,2022-01-28 12:00:00,15.58673715,0.0003542,70.0,103.6841,284.9935,348.7422,-0.0092142999999999,-0.00656226,0.0,0 STARLINK-3051,1 49157U 21082AD  22028.50001157 -.00656226  00000-0 -92143-2 0  9992,2 49157  70.0000 103.6841 0003542 284.9935 348.7422 15.58673715  3676,6769.632,92.386,393.894,389.099,0.0
49157.0,STARLINK-3051,PAYLOAD,2022-01-28 22:00:00,15.58091173,0.0003493,69.9999,102.5323,276.3314,174.2709,-0.009466,-0.00659209,0.0,0 STARLINK-3051,1 49157U 21082AD  22028.91667824 -.00659209  00000-0 -94660-2 0  9996,2 49157  69.9999 102.5323 0003493 276.3314 174.2709 15.58091173  3676,6771.319,92.421,395.549,390.819,0.0
49157.0,STARLINK-3051,PAYLOAD,2022-01-29 06:00:00,15.57622487,0.0003567,70.0003,101.6118,286.4905,232.975,-0.0095868,-0.00656202,0.0,0 STARLINK-3051,1 49157U 21082AD  22029.25001157 -.00656202  00000-0 -95868-2 0  9996,2 49157  70.0003 101.6118 0003567 286.4905 232.9750 15.57622487 22718,6772.677,92.449,396.958,392.126,0.0
49157.0,STARLINK-3051,PAYLOAD,2022-01-29 14:00:01,15.57154927,0.0003424,70.0001,100.6917,283.2032,304.5649,-0.009761,-0.00656453,0.0,0 STARLINK-3051,1 49157U 21082AD  22029.58334491 -.00656453  00000-0 -97610-2 0  9997,2 49157  70.0001 100.6917 0003424 283.2032 304.5649 15.57154927  3698,6774.033,92.476,398.217,393.578,0.0
49157.0,STARLINK-3051,PAYLOAD,2022-01-29 22:00:00,15.56689528,0.0003422,69.9999,99.7724,276.5603,18.9493,-0.010005,-0.00660892,0.0,0 STARLINK-3051,1 49157U 21082AD  22029.91667824 -.00660892  00000-0 -10005-1 0  9997,2 49157  69.9999  99.7724 0003422 276.5603  18.9493 15.56689528  3694,6775.3830000000025,92.504,399.566,394.929,0.0
49157.0,STARLINK-3051,PAYLOAD,2022-01-30 06:00:00,15.5622204,0.0003682,70.0003,98.8538,284.2725,78.4179,-0.010163,-0.00659885,0.0,0 STARLINK-3051,1 49157U 21082AD  22030.25001157 -.00659885  00000-0 -10163-1 0  9992,2 49157  70.0003  98.8538 0003682 284.2725  78.4179 15.56222040 22870,6776.74,92.532,401.1,396.109,0.0
49157.0,STARLINK-3051,PAYLOAD,2022-01-30 14:00:01,15.55751979,0.0003575,70.0002,97.9356,280.2793,149.0326,-0.010274,-0.00655858,0.0,0 STARLINK-3051,1 49157U 21082AD  22030.58334491 -.00655858  00000-0 -10274-1 0  9997,2 49157  70.0002  97.9356 0003575 280.2793 149.0326 15.55751979  3694,6778.105,92.56,402.393,397.546,0.0
49157.0,STARLINK-3051,PAYLOAD,2022-01-30 22:00:00,15.55285678,0.0003474,70.0,97.0182,280.1606,215.2108,-0.010486,-0.00657767,0.0,0 STARLINK-3051,1 49157U 21082AD  22030.91667824 -.00657767  00000-0 -10486-1 0  9999,2 49157  70.0000  97.0182 0003474 280.1606 215.2108 15.55285678  3692,6779.459,92.587,403.68,398.969,0.0
49157.0,STARLINK-3051,PAYLOAD,2022-01-31 14:00:01,15.54349369,0.0003478,70.0001,95.1852,284.1702,341.7043,-0.010809,-0.00655279,0.0,0 STARLINK-3051,1 49157U 21082AD  22031.58335648 -.00655279  00000-0 -10809-1 0  9994,2 49157  70.0001  95.1852 0003478 284.1702 341.7043 15.54349369 23075,6782.182,92.643,406.405,401.68800000000016,0.0
49157.0,STARLINK-3051,PAYLOAD,2022-01-31 22:00:01,15.53883198,0.0003469,70.0,94.2697,274.9725,55.2799,-0.011052,-0.0065842,0.0,0 STARLINK-3051,1 49157U 21082AD  22031.91668981 -.00658420  00000-0 -11052-1 0  9992,2 49157  70.0000  94.2697 0003469 274.9725  55.2799 15.53883198  3685,6783.538000000001,92.671,407.756,403.05,0.0
49157.0,STARLINK-3051,PAYLOAD,2022-02-01 14:00:01,15.5294458,0.0003634,70.0001,92.4407,286.1099,171.2177,-0.01131,-0.00651746,0.0,0 STARLINK-3051,1 49157U 21082AD  22032.58335648 -.00651746  00000-0 -11310-1 0  9998,2 49157  70.0001  92.4407 0003634 286.1099 171.2177 15.52944580 23232,6786.271,92.727,410.602,405.67,0.0
49157.0,STARLINK-3051,PAYLOAD,2022-02-01 22:00:00,15.52480154,0.0003361,69.9999,91.5272,276.3836,243.5741,-0.011592,-0.00656414,0.0,0 STARLINK-3051,1 49157U 21082AD  22032.91667824 -.00656414  00000-0 -11592-1 0  9998,2 49157  69.9999  91.5272 0003361 276.3836 243.5741 15.52480154  3681,6787.624,92.755,411.771,407.208,0.0
49157.0,STARLINK-3051,PAYLOAD,2022-02-02 14:00:01,15.51543663,0.0003391,70.0002,89.7019,277.4532,6.2153,-0.011936,-0.00653709,0.0,0 STARLINK-3051,1 49157U 21082AD  22033.58334491 -.00653709  00000-0 -11936-1 0  9999,2 49157  70.0002  89.7019 0003391 277.4532   6.2153 15.51543663 23389,6790.355,92.811,414.523,409.918,0.0
49157.0,STARLINK-3051,PAYLOAD,2022-02-02 22:00:00,15.51077028,0.0003476,70.0001,88.7903,274.1011,70.5816,-0.012186,-0.00656153,0.0,0 STARLINK-3051,1 49157U 21082AD  22033.91667824 -.00656153  00000-0 -12186-1 0  9999,2 49157  70.0001  88.7903 0003476 274.1011  70.5816 15.51077028  3698,6791.717,92.839,415.943,411.221,0.0
49157.0,STARLINK-3051,PAYLOAD,2022-02-03 14:00:01,15.50138794,0.0003488,69.9999,86.969,279.8418,185.1884,-0.012472,-0.0064998,0.0,0 STARLINK-3051,1 49157U 21082AD  22034.58334491 -.00649980  00000-0 -12472-1 0  9992,2 49157  69.9999  86.9690 0003488 279.8418 185.1884 15.50138794 23541,6794.456999999999,92.895,418.692,413.953,0.0
49157.0,STARLINK-3051,PAYLOAD,2022-02-03 22:00:01,15.49674209,0.0003412,69.9999,86.0592,280.0904,244.3355,-0.012775,-0.00654503,0.0,0 STARLINK-3051,1 49157U 21082AD  22034.91668981 -.00654503  00000-0 -12775-1 0  9996,2 49157  69.9999  86.0592 0003412 280.0904 244.3355 15.49674209  3693,6795.815,92.923,419.999,415.362,0.0
